{"type": "FeatureCollection", "features": [ {"type": "Feature", "properties": {"norad_id": 34468, "name": "COSMOS 2251 DEB", "group": "cosmos-2251-debris", "lat": 73.50252709742766, "lon": -179.6043766047963, "alt_km": 777.7275928766176, "timestamp": "2025-12-19T06:59:44.301144+00:00", "meta": {"OBJECT_NAME": "COSMOS 2251 DEB", "OBJECT_ID": "1993-036TM", "EPOCH": "2025-12-18T17:19:37.167744", "MEAN_MOTION": 14.47640265, "ECCENTRICITY": 0.00763208, "INCLINATION": 74.013, "RA_OF_ASC_NODE": 105.9968, "ARG_OF_PERICENTER": 249.7073, "MEAN_ANOMALY": 109.5872, "EPHEMERIS_TYPE": 0, "CLASSIFICATION_TYPE": "U", "NORAD_CAT_ID": 34468, "ELEMENT_SET_NO": 999, "REV_AT_EPOCH": 88548, "BSTAR": 0.00027124178, "MEAN_MOTION_DOT": 1.007e-05, "MEAN_MOTION_DDOT": 0}, "tle": {"line1": "1 34468U 93036TM  25352.72195796  .00001007  00000+0  27124-3 0  9995", "line2": "2 34468  74.0130 105.9968 0076320 249.7073 109.5872 14.47640265885484"}}, "geometry": {"type": "Point", "coordinates": [-179.6043766047963, 73.50252709742766]}}, {"type": "Feature", "properties": {"norad_id": 34472, "name": "COSMOS 2251 DEB", "group": "cosmos-2251-debris", "lat": 73.49270155812218, "lon": 161.68719238350744, "alt_km": 1146.2089046507426, "timestamp": "2025-12-19T06:59:44.301154+00:00", "meta": {"OBJECT_NAME": "COSMOS 2251 DEB", "OBJECT_ID": "1993-036TR", "EPOCH": "2025-12-18T16:32:15.678240", "MEAN_MOTION": 13.70339087, "ECCENTRICITY": 0.03278808, "INCLINATION": 74.0847, "RA_OF_ASC_NODE": 88.3603, "ARG_OF_PERICENTER": 218.0804, "MEAN_ANOMALY": 139.6734, "EPHEMERIS_TYPE": 0, "CLASSIFICATION_TYPE": "U", "NORAD_CAT_ID": 34472, "ELEMENT_SET_NO": 999, "REV_AT_EPOCH": 83808, "BSTAR": 0.00051678335, "MEAN_MOTION_DOT": 6.44e-06, "MEAN_MOTION_DDOT": 0}, "tle": {"line1": "1 34472U 93036TR  25352.68907035  .00000644  00000+0  51678-3 0  9999", "line2": "2 34472  74.0847  88.3603 0327880 218.0804 139.6734 13.70339087838082"}}, "geometry": {"type": "Point", "coordinates": [161.68719238350744, 73.49270155812218]}}, {"type": "Feature", "properties": {"norad_id": 34474, "name": "COSMOS 2251 DEB", "group": "cosmos-2251-debris", "lat": -7.830643774579748, "lon": -47.51010619039803, "alt_km": 755.9656453868511, "timestamp": "2025-12-19T06:59:44.301165+00:00", "meta": {"OBJECT_NAME": "COSMOS 2251 DEB", "OBJECT_ID": "1993-036TT", "EPOCH": "2025-12-18T22:45:14.450688", "MEAN_MOTION": 14.06458379, "ECCENTRICITY": 0.0198869, "INCLINATION": 74.0777, "RA_OF_ASC_NODE": 315.3391, "ARG_OF_PERICENTER": 27.6248, "MEAN_ANOMALY": 27.5907, "EPHEMERIS_TYPE": 0, "CLASSIFICATION_TYPE": "U", "NORAD_CAT_ID": 34474, "ELEMENT_SET_NO": 999, "REV_AT_EPOCH": 85596, "BSTAR": 0.0018742434, "MEAN_MOTION_DOT": 3.684e-05, "MEAN_MOTION_DDOT": 0}, "tle": {"line1": "1 34474U 93036TT  25352.94808392  .00003684  00000+0  18742-2 0  9997", "line2": "2 34474  74.0777 315.3391 0198869  27.6248  27.5907 14.06458379855961"}}, "geometry": {"type": "Point", "coordinates": [-47.51010619039803, -7.830643774579748]}}, {"type": "Feature", "properties": {"norad_id": 34476, "name": "COSMOS 2251 DEB", "group": "cosmos-2251-debris", "lat": 64.15228186308966, "lon": -144.83154752112546, "alt_km": 1185.1099840210773, "timestamp": "2025-12-19T06:59:44.301175+00:00", "meta": {"OBJECT_NAME": "COSMOS 2251 DEB", "OBJECT_ID": "1993-036TV", "EPOCH": "2025-12-17T05:48:19.955232", "MEAN_MOTION": 13.82074006, "ECCENTRICITY": 0.03207827, "INCLINATION": 74.0083, "RA_OF_ASC_NODE": 74.9164, "ARG_OF_PERICENTER": 293.5391, "MEAN_ANOMALY": 63.2336, "EPHEMERIS_TYPE": 0, "CLASSIFICATION_TYPE": "U", "NORAD_CAT_ID": 34476, "ELEMENT_SET_NO": 999, "REV_AT_EPOCH": 83700, "BSTAR": 0.0027724319, "MEAN_MOTION_DOT": 4.394e-05, "MEAN_MOTION_DDOT": 0}, "tle": {"line1": "1 34476U 93036TV  25351.24189763  .00004394  00000+0  27724-2 0  9994", "line2": "2 34476  74.0083  74.9164 0320782 293.5391  63.2336 13.82074006837005"}}, "geometry": {"type": "Point", "coordinates": [-144.83154752112546, 64.15228186308966]}}, {"type": "Feature", "properties": {"norad_id": 34477, "name": "COSMOS 2251 DEB", "group": "cosmos-2251-debris", "lat": -29.653663405653454, "lon": 47.602248504562056, "alt_km": 704.7219885345712, "timestamp": "2025-12-19T06:59:44.301185+00:00", "meta": {"OBJECT_NAME": "COSMOS 2251 DEB", "OBJECT_ID": "1993-036TW", "EPOCH": "2025-12-18T15:21:40.262112", "MEAN_MOTION": 14.56903552, "ECCENTRICITY": 0.00768488, "INCLINATION": 73.9793, "RA_OF_ASC_NODE": 58.2578, "ARG_OF_PERICENTER": 244.3262, "MEAN_ANOMALY": 268.6252, "EPHEMERIS_TYPE": 0, "CLASSIFICATION_TYPE": "U", "NORAD_CAT_ID": 34477, "ELEMENT_SET_NO": 999, "REV_AT_EPOCH": 88711, "BSTAR": 0.00056833755, "MEAN_MOTION_DOT": 2.623e-05, "MEAN_MOTION_DDOT": 0}, "tle": {"line1": "1 34477U 93036TW  25352.64004933  .00002623  00000+0  56834-3 0  9993", "line2": "2 34477  73.9793  58.2578 0076848 244.3262 268.6252 14.56903552887112"}}, "geometry": {"type": "Point", "coordinates": [47.602248504562056, -29.653663405653454]}}, {"type": "Feature", "properties": {"norad_id": 34478, "name": "COSMOS 2251 DEB", "group": "cosmos-2251-debris", "lat": -21.71132869348754, "lon": -13.141498701806452, "alt_km": 559.0943315007753, "timestamp": "2025-12-19T06:59:44.301195+00:00", "meta": {"OBJECT_NAME": "COSMOS 2251 DEB", "OBJECT_ID": "1993-036TX", "EPOCH": "2025-12-18T18:36:43.446240", "MEAN_MOTION": 15.0848037, "ECCENTRICITY": 0.0034317, "INCLINATION": 74.041, "RA_OF_ASC_NODE": 354.4631, "ARG_OF_PERICENTER": 214.348, "MEAN_ANOMALY": 201.9251, "EPHEMERIS_TYPE": 0, "CLASSIFICATION_TYPE": "U", "NORAD_CAT_ID": 34478, "ELEMENT_SET_NO": 999, "REV_AT_EPOCH": 89064, "BSTAR": 0.0022336036, "MEAN_MOTION_DOT": 0.00035434, "MEAN_MOTION_DDOT": 0}, "tle": {"line1": "1 34478U 93036TX  25352.77550285  .00035434  00000+0  22336-2 0  9999", "line2": "2 34478  74.0410 354.4631 0034317 214.3480 201.9251 15.08480370890643"}}, "geometry": {"type": "Point", "coordinates": [-13.141498701806452, -21.71132869348754]}}, {"type": "Feature", "properties": {"norad_id": 34481, "name": "COSMOS 2251 DEB", "group": "cosmos-2251-debris", "lat": -48.38627552950634, "lon": 22.58222575089777, "alt_km": 793.2046475666284, "timestamp": "2025-12-19T06:59:44.301206+00:00", "meta": {"OBJECT_NAME": "COSMOS 2251 DEB", "OBJECT_ID": "1993-036UA", "EPOCH": "2025-12-18T09:31:28.100928", "MEAN_MOTION": 14.32570922, "ECCENTRICITY": 0.0070547, "INCLINATION": 73.9796, "RA_OF_ASC_NODE": 43.0926, "ARG_OF_PERICENTER": 216.3849, "MEAN_ANOMALY": 159.8119, "EPHEMERIS_TYPE": 0, "CLASSIFICATION_TYPE": "U", "NORAD_CAT_ID": 34481, "ELEMENT_SET_NO": 999, "REV_AT_EPOCH": 87530, "BSTAR": 0.00051303593, "MEAN_MOTION_DOT": 1.405e-05, "MEAN_MOTION_DDOT": 0}, "tle": {"line1": "1 34481U 93036UA  25352.39685302  .00001405  00000+0  51304-3 0  9999", "line2": "2 34481  73.9796  43.0926 0070547 216.3849 159.8119 14.32570922875305"}}, "geometry": {"type": "Point", "coordinates": [22.58222575089777, -48.38627552950634]}}, {"type": "Feature", "properties": {"norad_id": 34482, "name": "COSMOS 2251 DEB", "group": "cosmos-2251-debris", "lat": -72.62086298798114, "lon": 97.05440306008002, "alt_km": 638.9714176766101, "timestamp": "2025-12-19T06:59:44.301216+00:00", "meta": {"OBJECT_NAME": "COSMOS 2251 DEB", "OBJECT_ID": "1993-036UB", "EPOCH": "2025-12-18T17:00:56.172672", "MEAN_MOTION": 14.69296925, "ECCENTRICITY": 0.00446853, "INCLINATION": 74.0362, "RA_OF_ASC_NODE": 212.0331, "ARG_OF_PERICENTER": 270.8586, "MEAN_ANOMALY": 152.392, "EPHEMERIS_TYPE": 0, "CLASSIFICATION_TYPE": "U", "NORAD_CAT_ID": 34482, "ELEMENT_SET_NO": 999, "REV_AT_EPOCH": 88275, "BSTAR": 0.0012163275, "MEAN_MOTION_DOT": 7.264e-05, "MEAN_MOTION_DDOT": 0}, "tle": {"line1": "1 34482U 93036UB  25352.70898348  .00007264  00000+0  12163-2 0  9999", "line2": "2 34482  74.0362 212.0331 0044685 270.8586 152.3920 14.69296925882755"}}, "geometry": {"type": "Point", "coordinates": [97.05440306008002, -72.62086298798114]}}, {"type": "Feature", "properties": {"norad_id": 34544, "name": "COSMOS 2251 DEB", "group": "cosmos-2251-debris", "lat": -26.304672818098535, "lon": -174.7768722881328, "alt_km": 1157.6042034836491, "timestamp": "2025-12-19T06:59:44.301226+00:00", "meta": {"OBJECT_NAME": "COSMOS 2251 DEB", "OBJECT_ID": "1993-036UE", "EPOCH": "2025-12-17T00:58:52.539168", "MEAN_MOTION": 13.54666176, "ECCENTRICITY": 0.03839215, "INCLINATION": 73.9141, "RA_OF_ASC_NODE": 197.066, "ARG_OF_PERICENTER": 224.7206, "MEAN_ANOMALY": 292.1267, "EPHEMERIS_TYPE": 0, "CLASSIFICATION_TYPE": "U", "NORAD_CAT_ID": 34544, "ELEMENT_SET_NO": 999, "REV_AT_EPOCH": 82940, "BSTAR": 0.00033405424, "MEAN_MOTION_DOT": 3.43e-06, "MEAN_MOTION_DDOT": 0}, "tle": {"line1": "1 34544U 93036UE  25351.04088587  .00000343  00000+0  33405-3 0  9994", "line2": "2 34544  73.9141 197.0660 0383921 224.7206 292.1267 13.54666176829402"}}, "geometry": {"type": "Point", "coordinates": [-174.7768722881328, -26.304672818098535]}}, {"type": "Feature", "properties": {"norad_id": 34546, "name": "COSMOS 2251 DEB", "group": "cosmos-2251-debris", "lat": -69.13111683840248, "lon": 105.65548907917675, "alt_km": 738.1913840159741, "timestamp": "2025-12-19T06:59:44.301236+00:00", "meta": {"OBJECT_NAME": "COSMOS 2251 DEB", "OBJECT_ID": "1993-036UG", "EPOCH": "2025-12-18T20:25:38.919360", "MEAN_MOTION": 14.45436583, "ECCENTRICITY": 0.00220233, "INCLINATION": 74.0309, "RA_OF_ASC_NODE": 237.7908, "ARG_OF_PERICENTER": 310.9498, "MEAN_ANOMALY": 175.2081, "EPHEMERIS_TYPE": 0, "CLASSIFICATION_TYPE": "U", "NORAD_CAT_ID": 34546, "ELEMENT_SET_NO": 999, "REV_AT_EPOCH": 88114, "BSTAR": 0.00043280851, "MEAN_MOTION_DOT": 1.502e-05, "MEAN_MOTION_DDOT": 0}, "tle": {"line1": "1 34546U 93036UG  25352.85114490  .00001502  00000+0  43281-3 0  9990", "line2": "2 34546  74.0309 237.7908 0022023 310.9498 175.2081 14.45436583881145"}}, "geometry": {"type": "Point", "coordinates": [105.65548907917675, -69.13111683840248]}}]}